[Satellite]
VERSION=1.1
NAME=Ten-Koh
NICKNAME=Ten-Koh
TLE1=1 43677U 18084G   19311.10113218  .00000065  00000-0  12550-4 0  9998
TLE2=2 43677  97.8648  64.0210 0016341 170.5352 189.6177 14.90212024 55679
STATUS=0
